{
  "type": "FeatureCollection",
  "features": [
    {
      "type": "Feature",
      "properties": {
        "norad_id": 40069,
        "name": "METEOR-M 2",
        "group": "weather",
        "lat": -62.8743339635435,
        "lon": -5.386300986201519,
        "alt_km": 830.384679888095,
        "timestamp": "2025-12-26T14:28:47.332498+00:00",
        "meta_object_name": "METEOR-M 2",
        "meta_object_id": "2014-037A",
        "meta_epoch": "2025-12-26T06:20:03.140736",
        "meta_mean_motion": 14.2139291,
        "meta_eccentricity": 0.00056726,
        "meta_inclination": 98.4922,
        "meta_ra_of_asc_node": 337.3308,
        "meta_arg_of_pericenter": 167.7908,
        "meta_mean_anomaly": 192.3408,
        "meta_ephemeris_type": 0,
        "meta_classification_type": "U",
        "meta_norad_cat_id": 40069,
        "meta_element_set_no": 999,
        "meta_rev_at_epoch": 59475,
        "meta_bstar": 0.00024061719,
        "meta_mean_motion_dot": 4.84e-06,
        "meta_mean_motion_ddot": 0,
        "tle_line1": "1 40069U 14037A   25360.26392524  .00000484  00000+0  24062-3 0  9995",
        "tle_line2": "2 40069  98.4922 337.3308 0005672 167.7908 192.3408 14.21392910594759"
      },
      "geometry": {
        "type": "Point",
        "coordinates": [
          -5.386300986201519,
          -62.8743339635435
        ]
      }
    },
    {
      "type": "Feature",
      "properties": {
        "norad_id": 40267,
        "name": "HIMAWARI-8",
        "group": "weather",
        "lat": -0.017672156330097253,
        "lon": 93.20681597888408,
        "alt_km": 35790.04054342847,
        "timestamp": "2025-12-26T14:28:47.332510+00:00",
        "meta_object_name": "HIMAWARI-8",
        "meta_object_id": "2014-060A",
        "meta_epoch": "2025-12-26T05:08:26.429856",
        "meta_mean_motion": 1.00270696,
        "meta_eccentricity": 0.00010059,
        "meta_inclination": 0.0429,
        "meta_ra_of_asc_node": 196.758,
        "meta_arg_of_pericenter": 108.4721,
        "meta_mean_anomaly": 7.5087,
        "meta_ephemeris_type": 0,
        "meta_classification_type": "U",
        "meta_norad_cat_id": 40267,
        "meta_element_set_no": 999,
        "meta_rev_at_epoch": 4102,
        "meta_bstar": 0,
        "meta_mean_motion_dot": -2.54e-06,
        "meta_mean_motion_ddot": 0,
        "tle_line1": "1 40267U 14060A   25360.21419479 -.00000254  00000+0  00000+0 0  9993",
        "tle_line2": "2 40267   0.0429 196.7580 0001005 108.4721   7.5087  1.00270696 41026"
      },
      "geometry": {
        "type": "Point",
        "coordinates": [
          93.20681597888408,
          -0.017672156330097253
        ]
      }
    },
    {
      "type": "Feature",
      "properties": {
        "norad_id": 40367,
        "name": "FENGYUN 2G",
        "group": "weather",
        "lat": -2.0285930883230248,
        "lon": 51.91746745025569,
        "alt_km": 35790.69842071767,
        "timestamp": "2025-12-26T14:28:47.332523+00:00",
        "meta_object_name": "FENGYUN 2G",
        "meta_object_id": "2014-090A",
        "meta_epoch": "2025-12-26T01:31:24.188160",
        "meta_mean_motion": 1.0028183,
        "meta_eccentricity": 0.00017333,
        "meta_inclination": 5.1989,
        "meta_ra_of_asc_node": 74.9322,
        "meta_arg_of_pericenter": 171.0452,
        "meta_mean_anomaly": 330.9574,
        "meta_ephemeris_type": 0,
        "meta_classification_type": "U",
        "meta_norad_cat_id": 40367,
        "meta_element_set_no": 999,
        "meta_rev_at_epoch": 4026,
        "meta_bstar": 0,
        "meta_mean_motion_dot": -2.82e-06,
        "meta_mean_motion_ddot": 0,
        "tle_line1": "1 40367U 14090A   25360.06347440 -.00000282  00000+0  00000+0 0  9999",
        "tle_line2": "2 40367   5.1989  74.9322 0001733 171.0452 330.9574  1.00281830 40261"
      },
      "geometry": {
        "type": "Point",
        "coordinates": [
          51.91746745025569,
          -2.0285930883230248
        ]
      }
    },
    {
      "type": "Feature",
      "properties": {
        "norad_id": 40732,
        "name": "METEOSAT-11 (MSG-4)",
        "group": "weather",
        "lat": -2.6150461603422817,
        "lon": -38.29229725085909,
        "alt_km": 35787.55927606136,
        "timestamp": "2025-12-26T14:28:47.332535+00:00",
        "meta_object_name": "METEOSAT-11 (MSG-4)",
        "meta_object_id": "2015-034A",
        "meta_epoch": "2025-12-25T16:31:52.264704",
        "meta_mean_motion": 1.00271545,
        "meta_eccentricity": 6.999e-05,
        "meta_inclination": 2.7688,
        "meta_ra_of_asc_node": 71.966,
        "meta_arg_of_pericenter": 136.703,
        "meta_mean_anomaly": 142.9271,
        "meta_ephemeris_type": 0,
        "meta_classification_type": "U",
        "meta_norad_cat_id": 40732,
        "meta_element_set_no": 999,
        "meta_rev_at_epoch": 547,
        "meta_bstar": 0,
        "meta_mean_motion_dot": 8.2e-07,
        "meta_mean_motion_ddot": 0,
        "tle_line1": "1 40732U 15034A   25359.68879936  .00000082  00000+0  00000+0 0  9997",
        "tle_line2": "2 40732   2.7688  71.9660 0000699 136.7030 142.9271  1.00271545  5479"
      },
      "geometry": {
        "type": "Point",
        "coordinates": [
          -38.29229725085909,
          -2.6150461603422817
        ]
      }
    },
    {
      "type": "Feature",
      "properties": {
        "norad_id": 41105,
        "name": "ELEKTRO-L 2",
        "group": "weather",
        "lat": -4.470980324087314,
        "lon": -62.08768736056651,
        "alt_km": 35772.08991858741,
        "timestamp": "2025-12-26T14:28:47.332548+00:00",
        "meta_object_name": "ELEKTRO-L 2",
        "meta_object_id": "2015-074A",
        "meta_epoch": "2025-12-26T04:33:21.945312",
        "meta_mean_motion": 1.00271693,
        "meta_eccentricity": 0.000362,
        "meta_inclination": 6.2573,
        "meta_ra_of_asc_node": 72.6685,
        "meta_arg_of_pericenter": 207.9868,
        "meta_mean_anomaly": 228.1548,
        "meta_ephemeris_type": 0,
        "meta_classification_type": "U",
        "meta_norad_cat_id": 41105,
        "meta_element_set_no": 999,
        "meta_rev_at_epoch": 3677,
        "meta_bstar": 0,
        "meta_mean_motion_dot": -9.7e-07,
        "meta_mean_motion_ddot": 0,
        "tle_line1": "1 41105U 15074A   25360.18983733 -.00000097  00000+0  00000+0 0  9991",
        "tle_line2": "2 41105   6.2573  72.6685 0003620 207.9868 228.1548  1.00271693 36773"
      },
      "geometry": {
        "type": "Point",
        "coordinates": [
          -62.08768736056651,
          -4.470980324087314
        ]
      }
    },
    {
      "type": "Feature",
      "properties": {
        "norad_id": 41752,
        "name": "INSAT-3DR",
        "group": "weather",
        "lat": -0.1014613003103444,
        "lon": 26.67363977456962,
        "alt_km": 35811.3664261441,
        "timestamp": "2025-12-26T14:28:47.332560+00:00",
        "meta_object_name": "INSAT-3DR",
        "meta_object_id": "2016-054A",
        "meta_epoch": "2025-12-24T15:09:51.705216",
        "meta_mean_motion": 1.00271379,
        "meta_eccentricity": 0.00142635,
        "meta_inclination": 0.1198,
        "meta_ra_of_asc_node": 86.2568,
        "meta_arg_of_pericenter": 185.6475,
        "meta_mean_anomaly": 122.9543,
        "meta_ephemeris_type": 0,
        "meta_classification_type": "U",
        "meta_norad_cat_id": 41752,
        "meta_element_set_no": 999,
        "meta_rev_at_epoch": 3406,
        "meta_bstar": 0,
        "meta_mean_motion_dot": -5.6e-07,
        "meta_mean_motion_ddot": 0,
        "tle_line1": "1 41752U 16054A   25358.63184844 -.00000056  00000+0  00000+0 0  9996",
        "tle_line2": "2 41752   0.1198  86.2568 0014263 185.6475 122.9543  1.00271379 34066"
      },
      "geometry": {
        "type": "Point",
        "coordinates": [
          26.67363977456962,
          -0.1014613003103444
        ]
      }
    },
    {
      "type": "Feature",
      "properties": {
        "norad_id": 41836,
        "name": "HIMAWARI-9",
        "group": "weather",
        "lat": 0.014873875409959528,
        "lon": 93.32962450146721,
        "alt_km": 35789.494794839295,
        "timestamp": "2025-12-26T14:28:47.332573+00:00",
        "meta_object_name": "HIMAWARI-9",
        "meta_object_id": "2016-064A",
        "meta_epoch": "2025-12-26T00:44:38.656608",
        "meta_mean_motion": 1.00271993,
        "meta_eccentricity": 0.00010793,
        "meta_inclination": 0.0124,
        "meta_ra_of_asc_node": 80.1849,
        "meta_arg_of_pericenter": 234.8379,
        "meta_mean_anomaly": 291.7052,
        "meta_ephemeris_type": 0,
        "meta_classification_type": "U",
        "meta_norad_cat_id": 41836,
        "meta_element_set_no": 999,
        "meta_rev_at_epoch": 3347,
        "meta_bstar": 0,
        "meta_mean_motion_dot": -2.53e-06,
        "meta_mean_motion_ddot": 0,
        "tle_line1": "1 41836U 16064A   25360.03100297 -.00000253  00000+0  00000+0 0  9996",
        "tle_line2": "2 41836   0.0124  80.1849 0001079 234.8379 291.7052  1.00271993 33479"
      },
      "geometry": {
        "type": "Point",
        "coordinates": [
          93.32962450146721,
          0.014873875409959528
        ]
      }
    }
  ]
}